[{"OBJECT_NAME":"ONEWEB-0574","OBJECT_ID":"2023-043T","EPOCH":"2025-11-14T06:57:36.317952","MEAN_MOTION":13.21826171,"ECCENTRICITY":0.00017493,"INCLINATION":87.9176,"RA_OF_ASC_NODE":286.831,"ARG_OF_PERICENTER":87.2724,"MEAN_ANOMALY":272.8611,"EPHEMERIS_TYPE":0,"CLASSIFICATION_TYPE":"U","NORAD_CAT_ID":56063,"ELEMENT_SET_NO":999,"REV_AT_EPOCH":12988,"BSTAR":-0.00084001802,"MEAN_MOTION_DOT":-3.34e-6,"MEAN_MOTION_DDOT":0},{"OBJECT_NAME":"ONEWEB-0575","OBJECT_ID":"2023-043U","EPOCH":"2025-11-13T20:34:22.452384","MEAN_MOTION":13.16592483,"ECCENTRICITY":0.00014313,"INCLINATION":87.9011,"RA_OF_ASC_NODE":271.6531,"ARG_OF_PERICENTER":83.3784,"MEAN_ANOMALY":276.751,"EPHEMERIS_TYPE":0,"CLASSIFICATION_TYPE":"U","NORAD_CAT_ID":56064,"ELEMENT_SET_NO":999,"REV_AT_EPOCH":13063,"BSTAR":0.00019486691,"MEAN_MOTION_DOT":8.7e-7,"MEAN_MOTION_DDOT":0},{"OBJECT_NAME":"ONEWEB-0576","OBJECT_ID":"2023-043V","EPOCH":"2025-11-14T07:03:38.937024","MEAN_MOTION":13.16594989,"ECCENTRICITY":0.00016983,"INCLINATION":87.902,"RA_OF_ASC_NODE":271.5652,"ARG_OF_PERICENTER":77.2213,"MEAN_ANOMALY":282.9108,"EPHEMERIS_TYPE":0,"CLASSIFICATION_TYPE":"U","NORAD_CAT_ID":56065,"ELEMENT_SET_NO":999,"REV_AT_EPOCH":13068,"BSTAR":-0.00021314042,"MEAN_MOTION_DOT":-6.9e-7,"MEAN_MOTION_DDOT":0},{"OBJECT_NAME":"ONEWEB-0577","OBJECT_ID":"2023-043W","EPOCH":"2025-11-14T07:12:45.882720","MEAN_MOTION":13.16595236,"ECCENTRICITY":0.00012262,"INCLINATION":87.9015,"RA_OF_ASC_NODE":271.5638,"ARG_OF_PERICENTER":90.9386,"MEAN_ANOMALY":269.1885,"EPHEMERIS_TYPE":0,"CLASSIFICATION_TYPE":"U","NORAD_CAT_ID":56066,"ELEMENT_SET_NO":999,"REV_AT_EPOCH":13071,"BSTAR":-8.3911134e-5,"MEAN_MOTION_DOT":-1.9e-7,"MEAN_MOTION_DDOT":0},{"OBJECT_NAME":"ONEWEB-0578","OBJECT_ID":"2023-043X","EPOCH":"2025-11-14T06:38:41.396928","MEAN_MOTION":13.21824927,"ECCENTRICITY":0.00017024,"INCLINATION":87.9184,"RA_OF_ASC_NODE":286.8434,"ARG_OF_PERICENTER":75.6439,"MEAN_ANOMALY":284.4883,"EPHEMERIS_TYPE":0,"CLASSIFICATION_TYPE":"U","NORAD_CAT_ID":56067,"ELEMENT_SET_NO":999,"REV_AT_EPOCH":12984,"BSTAR":-3.2272355e-5,"MEAN_MOTION_DOT":0,"MEAN_MOTION_DDOT":0},{"OBJECT_NAME":"ONEWEB-0579","OBJECT_ID":"2023-043Y","EPOCH":"2025-11-13T15:52:28.114464","MEAN_MOTION":13.21813448,"ECCENTRICITY":0.00020495,"INCLINATION":87.9186,"RA_OF_ASC_NODE":286.9536,"ARG_OF_PERICENTER":87.2213,"MEAN_ANOMALY":272.9155,"EPHEMERIS_TYPE":0,"CLASSIFICATION_TYPE":"U","NORAD_CAT_ID":56068,"ELEMENT_SET_NO":999,"REV_AT_EPOCH":12977,"BSTAR":0.0065040492,"MEAN_MOTION_DOT":2.7e-5,"MEAN_MOTION_DDOT":0},{"OBJECT_NAME":"ONEWEB-0581","OBJECT_ID":"2023-043Z","EPOCH":"2025-11-14T07:21:51.804576","MEAN_MOTION":13.1659428,"ECCENTRICITY":0.00015716,"INCLINATION":87.9013,"RA_OF_ASC_NODE":271.577,"ARG_OF_PERICENTER":92.3947,"MEAN_ANOMALY":267.7364,"EPHEMERIS_TYPE":0,"CLASSIFICATION_TYPE":"U","NORAD_CAT_ID":56069,"ELEMENT_SET_NO":999,"REV_AT_EPOCH":13068,"BSTAR":-0.00056325276,"MEAN_MOTION_DOT":-2.02e-6,"MEAN_MOTION_DDOT":0},{"OBJECT_NAME":"ONEWEB-0609","OBJECT_ID":"2023-043AA","EPOCH":"2025-11-14T00:25:18.476544","MEAN_MOTION":13.15545573,"ECCENTRICITY":0.00018971,"INCLINATION":87.8963,"RA_OF_ASC_NODE":302.1548,"ARG_OF_PERICENTER":85.7928,"MEAN_ANOMALY":274.3419,"EPHEMERIS_TYPE":0,"CLASSIFICATION_TYPE":"U","NORAD_CAT_ID":56070,"ELEMENT_SET_NO":999,"REV_AT_EPOCH":12814,"BSTAR":-3.3297473e-5,"MEAN_MOTION_DOT":0,"MEAN_MOTION_DDOT":0},{"OBJECT_NAME":"ONEWEB-0613","OBJECT_ID":"2023-043AB","EPOCH":"2025-11-14T00:18:28.580256","MEAN_MOTION":13.15547044,"ECCENTRICITY":0.00021201,"INCLINATION":87.8964,"RA_OF_ASC_NODE":302.1688,"ARG_OF_PERICENTER":89.8973,"MEAN_ANOMALY":270.2401,"EPHEMERIS_TYPE":0,"CLASSIFICATION_TYPE":"U","NORAD_CAT_ID":56071,"ELEMENT_SET_NO":999,"REV_AT_EPOCH":12814,"BSTAR":-1.4065932e-5,"MEAN_MOTION_DOT":8.0e-8,"MEAN_MOTION_DDOT":0},{"OBJECT_NAME":"ONEWEB-0630","OBJECT_ID":"2023-043AC","EPOCH":"2025-11-14T00:11:37.264416","MEAN_MOTION":13.15548966,"ECCENTRICITY":0.000212,"INCLINATION":87.8961,"RA_OF_ASC_NODE":302.1414,"ARG_OF_PERICENTER":90.5806,"MEAN_ANOMALY":269.5567,"EPHEMERIS_TYPE":0,"CLASSIFICATION_TYPE":"U","NORAD_CAT_ID":56072,"ELEMENT_SET_NO":999,"REV_AT_EPOCH":12813,"BSTAR":-0.00033108493,"MEAN_MOTION_DOT":-1.12e-6,"MEAN_MOTION_DDOT":0},{"OBJECT_NAME":"ONEWEB-0632","OBJECT_ID":"2023-043AD","EPOCH":"2025-11-14T00:04:45.963264","MEAN_MOTION":13.15548896,"ECCENTRICITY":0.00017458,"INCLINATION":87.896,"RA_OF_ASC_NODE":302.1612,"ARG_OF_PERICENTER":94.0514,"MEAN_ANOMALY":266.0816,"EPHEMERIS_TYPE":0,"CLASSIFICATION_TYPE":"U","NORAD_CAT_ID":56073,"ELEMENT_SET_NO":999,"REV_AT_EPOCH":12813,"BSTAR":-0.00062730559,"MEAN_MOTION_DOT":-2.23e-6,"MEAN_MOTION_DDOT":0},{"OBJECT_NAME":"ONEWEB-0633","OBJECT_ID":"2023-043AE","EPOCH":"2025-11-13T11:08:58.607808","MEAN_MOTION":13.15551037,"ECCENTRICITY":0.0002252,"INCLINATION":87.8957,"RA_OF_ASC_NODE":302.2323,"ARG_OF_PERICENTER":87.0558,"MEAN_ANOMALY":273.083,"EPHEMERIS_TYPE":0,"CLASSIFICATION_TYPE":"U","NORAD_CAT_ID":56074,"ELEMENT_SET_NO":999,"REV_AT_EPOCH":12804,"BSTAR":-0.00017322,"MEAN_MOTION_DOT":-5.2e-7,"MEAN_MOTION_DDOT":0},{"OBJECT_NAME":"ONEWEB-0634","OBJECT_ID":"2023-043AF","EPOCH":"2025-11-13T10:48:26.960256","MEAN_MOTION":13.15550917,"ECCENTRICITY":0.0001903,"INCLINATION":87.8963,"RA_OF_ASC_NODE":302.2833,"ARG_OF_PERICENTER":77.6592,"MEAN_ANOMALY":282.4751,"EPHEMERIS_TYPE":0,"CLASSIFICATION_TYPE":"U","NORAD_CAT_ID":56075,"ELEMENT_SET_NO":999,"REV_AT_EPOCH":12803,"BSTAR":-0.0002197,"MEAN_MOTION_DOT":-7.0e-7,"MEAN_MOTION_DDOT":0},{"OBJECT_NAME":"ONEWEB-0635","OBJECT_ID":"2023-043AG","EPOCH":"2025-11-13T23:28:16.625280","MEAN_MOTION":13.15548416,"ECCENTRICITY":0.00017087,"INCLINATION":87.8958,"RA_OF_ASC_NODE":302.133,"ARG_OF_PERICENTER":94.4546,"MEAN_ANOMALY":265.678,"EPHEMERIS_TYPE":0,"CLASSIFICATION_TYPE":"U","NORAD_CAT_ID":56076,"ELEMENT_SET_NO":999,"REV_AT_EPOCH":12813,"BSTAR":-0.00029080972,"MEAN_MOTION_DOT":-9.7e-7,"MEAN_MOTION_DDOT":0},{"OBJECT_NAME":"ONEWEB-0636","OBJECT_ID":"2023-043AH","EPOCH":"2025-11-13T15:58:46.848864","MEAN_MOTION":13.15550052,"ECCENTRICITY":0.00016759,"INCLINATION":87.8955,"RA_OF_ASC_NODE":302.2131,"ARG_OF_PERICENTER":92.7514,"MEAN_ANOMALY":267.3808,"EPHEMERIS_TYPE":0,"CLASSIFICATION_TYPE":"U","NORAD_CAT_ID":56077,"ELEMENT_SET_NO":999,"REV_AT_EPOCH":12807,"BSTAR":0.00023036684,"MEAN_MOTION_DOT":1.0e-6,"MEAN_MOTION_DDOT":0},{"OBJECT_NAME":"ONEWEB-0637","OBJECT_ID":"2023-043AJ","EPOCH":"2025-11-14T00:57:15.727968","MEAN_MOTION":13.15549031,"ECCENTRICITY":0.00015785,"INCLINATION":87.8963,"RA_OF_ASC_NODE":302.1538,"ARG_OF_PERICENTER":82.6507,"MEAN_ANOMALY":277.4803,"EPHEMERIS_TYPE":0,"CLASSIFICATION_TYPE":"U","NORAD_CAT_ID":56078,"ELEMENT_SET_NO":999,"REV_AT_EPOCH":12814,"BSTAR":-0.00012342516,"MEAN_MOTION_DOT":-3.4e-7,"MEAN_MOTION_DDOT":0}]
