ONEWEB-0574             
1 56063U 23043T   25318.29000368 -.00000334  00000+0 -84002-3 0  9997
2 56063  87.9176 286.8310 0001749  87.2724 272.8611 13.21826171129886
ONEWEB-0575             
1 56064U 23043U   25317.85720431  .00000087  00000+0  19487-3 0  9997
2 56064  87.9011 271.6531 0001431  83.3784 276.7510 13.16592483130639
ONEWEB-0576             
1 56065U 23043V   25318.29420066 -.00000069  00000+0 -21314-3 0  9992
2 56065  87.9020 271.5652 0001698  77.2213 282.9108 13.16594989130687
ONEWEB-0577             
1 56066U 23043W   25318.30053105 -.00000019  00000+0 -83911-4 0  9998
2 56066  87.9015 271.5638 0001226  90.9386 269.1885 13.16595236130715
ONEWEB-0578             
1 56067U 23043X   25318.27686802  .00000000  00000+0 -32272-4 0  9994
2 56067  87.9184 286.8434 0001702  75.6439 284.4883 13.21824927129842
ONEWEB-0579             
1 56068U 23043Y   25317.66143651  .00002700  00000+0  65040-2 0  9992
2 56068  87.9186 286.9536 0002049  87.2213 272.9155 13.21813448129775
ONEWEB-0581             
1 56069U 23043Z   25318.30684959 -.00000202  00000+0 -56325-3 0  9990
2 56069  87.9013 271.5770 0001571  92.3947 267.7364 13.16594280130685
ONEWEB-0609             
1 56070U 23043AA  25318.01757496  .00000000  00000+0 -33297-4 0  9996
2 56070  87.8963 302.1548 0001897  85.7928 274.3419 13.15545573128143
ONEWEB-0613             
1 56071U 23043AB  25318.01283079  .00000008  00000+0 -14066-4 0  9999
2 56071  87.8964 302.1688 0002120  89.8973 270.2401 13.15547044128146
ONEWEB-0630             
1 56072U 23043AC  25318.00807019 -.00000112  00000+0 -33108-3 0  9999
2 56072  87.8961 302.1414 0002120  90.5806 269.5567 13.15548966128132
ONEWEB-0632             
1 56073U 23043AD  25318.00330976 -.00000223  00000+0 -62731-3 0  9990
2 56073  87.8960 302.1612 0001745  94.0514 266.0816 13.15548896128130
ONEWEB-0633             
1 56074U 23043AE  25317.46456722 -.00000052  00000+0 -17322-3 0  9994
2 56074  87.8957 302.2323 0002252  87.0558 273.0830 13.15551037128046
ONEWEB-0634             
1 56075U 23043AF  25317.45031204 -.00000070  00000+0 -21970-3 0  9992
2 56075  87.8963 302.2833 0001903  77.6592 282.4751 13.15550917128036
ONEWEB-0635             
1 56076U 23043AG  25317.97797020 -.00000097  00000+0 -29081-3 0  9995
2 56076  87.8958 302.1330 0001708  94.4546 265.6780 13.15548416128138
ONEWEB-0636             
1 56077U 23043AH  25317.66582001  .00000100  00000+0  23037-3 0  9991
2 56077  87.8955 302.2131 0001675  92.7514 267.3808 13.15550052128077
ONEWEB-0637             
1 56078U 23043AJ  25318.03976537 -.00000034  00000+0 -12343-3 0  9991
2 56078  87.8963 302.1538 0001578  82.6507 277.4803 13.15549031128149
